{
  "type": "FeatureCollection",
  "features": [
    {
      "type": "Feature",
      "properties": {
        "norad_id": 66544,
        "name": "STARLINK-35728",
        "group": "last-30-days",
        "lat": 22.999320542927435,
        "lon": 172.18103901885237,
        "alt_km": 411.68857301278786,
        "timestamp": "2025-12-18T15:47:09.958690+00:00",
        "meta_object_name": "STARLINK-35728",
        "meta_object_id": "2025-265AE",
        "meta_epoch": "2025-12-18T02:47:48.345792",
        "meta_mean_motion": 15.50616267,
        "meta_eccentricity": 0.00012891,
        "meta_inclination": 43.0006,
        "meta_ra_of_asc_node": 22.4446,
        "meta_arg_of_pericenter": 274.0122,
        "meta_mean_anomaly": 86.059,
        "meta_ephemeris_type": 0,
        "meta_classification_type": "U",
        "meta_norad_cat_id": 66544,
        "meta_element_set_no": 999,
        "meta_rev_at_epoch": 459,
        "meta_bstar": 0.00099287091,
        "meta_mean_motion_dot": 0.00058419,
        "meta_mean_motion_ddot": 0,
        "tle_line1": "1 66544U 25265AE  25352.11653178  .00058419  00000+0  99287-3 0  9998",
        "tle_line2": "2 66544  43.0006  22.4446 0001289 274.0122  86.0590 15.50616267  4595"
      },
      "geometry": {
        "type": "Point",
        "coordinates": [
          172.18103901885237,
          22.999320542927435
        ]
      }
    },
    {
      "type": "Feature",
      "properties": {
        "norad_id": 66545,
        "name": "SHIJIAN-30A",
        "group": "last-30-days",
        "lat": 4.089981381868678,
        "lon": 121.90886965674432,
        "alt_km": 527.7070864429488,
        "timestamp": "2025-12-18T15:47:09.958701+00:00",
        "meta_object_name": "SHIJIAN-30A",
        "meta_object_id": "2025-266A",
        "meta_epoch": "2025-12-18T07:06:22.449024",
        "meta_mean_motion": 15.15573851,
        "meta_eccentricity": 0.00130367,
        "meta_inclination": 51.7996,
        "meta_ra_of_asc_node": 306.8318,
        "meta_arg_of_pericenter": 16.0872,
        "meta_mean_anomaly": 344.0516,
        "meta_ephemeris_type": 0,
        "meta_classification_type": "U",
        "meta_norad_cat_id": 66545,
        "meta_element_set_no": 999,
        "meta_rev_at_epoch": 442,
        "meta_bstar": 0.0005610064,
        "meta_mean_motion_dot": 0.00010505,
        "meta_mean_motion_ddot": 0,
        "tle_line1": "1 66545U 25266A   25352.29609316  .00010505  00000+0  56101-3 0  9996",
        "tle_line2": "2 66545  51.7996 306.8318 0013036  16.0872 344.0516 15.15573851  4425"
      },
      "geometry": {
        "type": "Point",
        "coordinates": [
          121.90886965674432,
          4.089981381868678
        ]
      }
    },
    {
      "type": "Feature",
      "properties": {
        "norad_id": 66546,
        "name": "SHIJIAN-30B",
        "group": "last-30-days",
        "lat": 9.34798798876247,
        "lon": 117.69731456523415,
        "alt_km": 524.9552014712981,
        "timestamp": "2025-12-18T15:47:09.958711+00:00",
        "meta_object_name": "SHIJIAN-30B",
        "meta_object_id": "2025-266B",
        "meta_epoch": "2025-12-18T07:08:08.592288",
        "meta_mean_motion": 15.15556076,
        "meta_eccentricity": 0.00107525,
        "meta_inclination": 51.798,
        "meta_ra_of_asc_node": 306.8353,
        "meta_arg_of_pericenter": 19.3585,
        "meta_mean_anomaly": 340.7798,
        "meta_ephemeris_type": 0,
        "meta_classification_type": "U",
        "meta_norad_cat_id": 66546,
        "meta_element_set_no": 999,
        "meta_rev_at_epoch": 442,
        "meta_bstar": 0.00064570856,
        "meta_mean_motion_dot": 0.00012128,
        "meta_mean_motion_ddot": 0,
        "tle_line1": "1 66546U 25266B   25352.29732167  .00012128  00000+0  64571-3 0  9991",
        "tle_line2": "2 66546  51.7980 306.8353 0010752  19.3585 340.7798 15.15556076  4422"
      },
      "geometry": {
        "type": "Point",
        "coordinates": [
          117.69731456523415,
          9.34798798876247
        ]
      }
    },
    {
      "type": "Feature",
      "properties": {
        "norad_id": 66547,
        "name": "SHIJIAN-30C",
        "group": "last-30-days",
        "lat": 11.979900093021367,
        "lon": 115.53600856104757,
        "alt_km": 525.5923733597929,
        "timestamp": "2025-12-18T15:47:09.958722+00:00",
        "meta_object_name": "SHIJIAN-30C",
        "meta_object_id": "2025-266C",
        "meta_epoch": "2025-12-18T07:09:00.619776",
        "meta_mean_motion": 15.15496174,
        "meta_eccentricity": 0.00116122,
        "meta_inclination": 51.799,
        "meta_ra_of_asc_node": 306.8414,
        "meta_arg_of_pericenter": 11.0989,
        "meta_mean_anomaly": 349.0242,
        "meta_ephemeris_type": 0,
        "meta_classification_type": "U",
        "meta_norad_cat_id": 66547,
        "meta_element_set_no": 999,
        "meta_rev_at_epoch": 442,
        "meta_bstar": 0.00056583553,
        "meta_mean_motion_dot": 0.00010571,
        "meta_mean_motion_ddot": 0,
        "tle_line1": "1 66547U 25266C   25352.29792384  .00010571  00000+0  56584-3 0  9994",
        "tle_line2": "2 66547  51.7990 306.8414 0011612  11.0989 349.0242 15.15496174  4423"
      },
      "geometry": {
        "type": "Point",
        "coordinates": [
          115.53600856104757,
          11.979900093021367
        ]
      }
    },
    {
      "type": "Feature",
      "properties": {
        "norad_id": 66548,
        "name": "CZ-2C R/B",
        "group": "last-30-days",
        "lat": -51.63360007443557,
        "lon": -156.63704285345142,
        "alt_km": 460.0101397930248,
        "timestamp": "2025-12-18T15:47:09.958733+00:00",
        "meta_object_name": "CZ-2C R/B",
        "meta_object_id": "2025-266D",
        "meta_epoch": "2025-12-18T06:48:12.971808",
        "meta_mean_motion": 15.302969,
        "meta_eccentricity": 0.00836165,
        "meta_inclination": 52.0555,
        "meta_ra_of_asc_node": 304.8654,
        "meta_arg_of_pericenter": 192.2011,
        "meta_mean_anomaly": 167.6951,
        "meta_ephemeris_type": 0,
        "meta_classification_type": "U",
        "meta_norad_cat_id": 66548,
        "meta_element_set_no": 999,
        "meta_rev_at_epoch": 446,
        "meta_bstar": 0.0003317341,
        "meta_mean_motion_dot": 0.00010588,
        "meta_mean_motion_ddot": 0,
        "tle_line1": "1 66548U 25266D   25352.28348347  .00010588  00000+0  33173-3 0  9997",
        "tle_line2": "2 66548  52.0555 304.8654 0083616 192.2011 167.6951 15.30296900  4467"
      },
      "geometry": {
        "type": "Point",
        "coordinates": [
          -156.63704285345142,
          -51.63360007443557
        ]
      }
    },
    {
      "type": "Feature",
      "properties": {
        "norad_id": 66549,
        "name": "SHIJIAN-28",
        "group": "last-30-days",
        "lat": 1.21245950557935,
        "lon": 81.17717489831956,
        "alt_km": 35782.91113549278,
        "timestamp": "2025-12-18T15:47:09.958748+00:00",
        "meta_object_name": "SHIJIAN-28",
        "meta_object_id": "2025-277A",
        "meta_epoch": "2025-12-18T05:17:26.776320",
        "meta_mean_motion": 1.00269462,
        "meta_eccentricity": 0.00010169,
        "meta_inclination": 5.0051,
        "meta_ra_of_asc_node": 274.8708,
        "meta_arg_of_pericenter": 136.5503,
        "meta_mean_anomaly": 231.8647,
        "meta_ephemeris_type": 0,
        "meta_classification_type": "U",
        "meta_norad_cat_id": 66549,
        "meta_element_set_no": 999,
        "meta_rev_at_epoch": 34,
        "meta_bstar": 0,
        "meta_mean_motion_dot": -3.3e-06,
        "meta_mean_motion_ddot": 0,
        "tle_line1": "1 66549U 25277A   25352.22044880 -.00000330  00000+0  00000+0 0  9993",
        "tle_line2": "2 66549   5.0051 274.8708 0001016 136.5503 231.8647  1.00269462   348"
      },
      "geometry": {
        "type": "Point",
        "coordinates": [
          81.17717489831956,
          1.21245950557935
        ]
      }
    },
    {
      "type": "Feature",
      "properties": {
        "norad_id": 66550,
        "name": "CZ-7A R/B",
        "group": "last-30-days",
        "lat": -2.790316660790978,
        "lon": -104.1895758308816,
        "alt_km": 22204.02216261192,
        "timestamp": "2025-12-18T15:47:09.958761+00:00",
        "meta_object_name": "CZ-7A R/B",
        "meta_object_id": "2025-277B",
        "meta_epoch": "2025-12-12T23:59:46.063680",
        "meta_mean_motion": 2.69999213,
        "meta_eccentricity": 0.70164962,
        "meta_inclination": 14.3833,
        "meta_ra_of_asc_node": 269.7494,
        "meta_arg_of_pericenter": 189.2871,
        "meta_mean_anomaly": 143.2042,
        "meta_ephemeris_type": 0,
        "meta_classification_type": "U",
        "meta_norad_cat_id": 66550,
        "meta_element_set_no": 999,
        "meta_rev_at_epoch": 35,
        "meta_bstar": 0.0022608485,
        "meta_mean_motion_dot": 0.01807848,
        "meta_mean_motion_ddot": -2.55676e-07,
        "tle_line1": "1 66550U 25277B   25346.99983870  .01807848 -25568-6  22608-2 0  9997",
        "tle_line2": "2 66550  14.3833 269.7494 7016496 189.2871 143.2042  2.69999213   350"
      },
      "geometry": {
        "type": "Point",
        "coordinates": [
          -104.1895758308816,
          -2.790316660790978
        ]
      }
    }
  ]
}